{
 "type": "FeatureCollection",
 "fuente": "F03",
 "vigencia": "2026-10-06",
 "probado": "2026-10-06",
 "features": [
  {
   "type": "Feature",
   "properties": {
    "sb_codigo": "01",
    "sb_nombre": "Altstadt-Lehel",
    "area_km2": 3.15
   },
   "geometry": {
    "type": "MultiPolygon",
    "coordinates": [
     [
      [
       [
        11.5913,
        48.1565
       ],
       [
        11.5894,
        48.1566
       ],
       [
        11.5897,
        48.154
       ],
       [
        11.5861,
        48.1501
       ],
       [
        11.5848,
        48.1499
       ],
       [
        11.5851,
        48.1473
       ],
       [
        11.5834,
        48.1432
       ],
       [
        11.5784,
        48.1443
       ],
       [
        11.5776,
        48.1426
       ],
       [
        11.5738,
        48.1434
       ],
       [
        11.5657,
        48.1396
       ],
       [
        11.5648,
        48.1364
       ],
       [
        11.5671,
        48.1323
       ],
       [
        11.5704,
        48.1309
       ],
       [
        11.5748,
        48.1333
       ],
       [
        11.5828,
        48.1339
       ],
       [
        11.5865,
        48.1317
       ],
       [
        11.5885,
        48.1348
       ],
       [
        11.5911,
        48.1361
       ],
       [
        11.5924,
        48.1381
       ],
       [
        11.5902,
        48.1373
       ],
       [
        11.5942,
        48.1404
       ],
       [
        11.5963,
        48.147
       ],
       [
        11.5982,
        48.1493
       ],
       [
        11.5941,
        48.1517
       ],
       [
        11.5913,
        48.1565
       ]
      ]
     ]
    ]
   }
  },
  {
   "type": "Feature",
   "properties": {
    "sb_codigo": "02",
    "sb_nombre": "Ludwigsvorstadt-Isarvorstadt",
    "area_km2": 4.4
   },
   "geometry": {
    "type": "MultiPolygon",
    "coordinates": [
     [
      [
       [
        11.5505,
        48.1432
       ],
       [
        11.5484,
        48.1435
       ],
       [
        11.5481,
        48.1404
       ],
       [
        11.547,
        48.1393
       ],
       [
        11.5498,
        48.1389
       ],
       [
        11.5497,
        48.1371
       ],
       [
        11.5475,
        48.1349
       ],
       [
        11.5462,
        48.1317
       ],
       [
        11.5466,
        48.1305
       ],
       [
        11.5442,
        48.1263
       ],
       [
        11.5625,
        48.1179
       ],
       [
        11.5783,
        48.1271
       ],
       [
        11.5839,
        48.1285
       ],
       [
        11.5874,
        48.1316
       ],
       [
        11.5828,
        48.1339
       ],
       [
        11.5796,
        48.134
       ],
       [
        11.5748,
        48.1333
       ],
       [
        11.5706,
        48.1309
       ],
       [
        11.5683,
        48.1314
       ],
       [
        11.5648,
        48.1364
       ],
       [
        11.5657,
        48.1396
       ],
       [
        11.5505,
        48.1432
       ]
      ]
     ]
    ]
   }
  },
  {
   "type": "Feature",
   "properties": {
    "sb_codigo": "03",
    "sb_nombre": "Maxvorstadt",
    "area_km2": 4.3
   },
   "geometry": {
    "type": "MultiPolygon",
    "coordinates": [
     [
      [
       [
        11.564,
        48.1569
       ],
       [
        11.56,
        48.1576
       ],
       [
        11.5495,
        48.1519
       ],
       [
        11.548,
        48.1496
       ],
       [
        11.5468,
        48.1498
       ],
       [
        11.5389,
        48.1428
       ],
       [
        11.5484,
        48.1421
       ],
       [
        11.5485,
        48.1436
       ],
       [
        11.5657,
        48.1396
       ],
       [
        11.5738,
        48.1434
       ],
       [
        11.5776,
        48.1426
       ],
       [
        11.5784,
        48.1443
       ],
       [
        11.5834,
        48.1432
       ],
       [
        11.5851,
        48.1473
       ],
       [
        11.5848,
        48.1499
       ],
       [
        11.5861,
        48.1501
       ],
       [
        11.5879,
        48.1532
       ],
       [
        11.5853,
        48.1517
       ],
       [
        11.5821,
        48.1521
       ],
       [
        11.5827,
        48.1541
       ],
       [
        11.5701,
        48.1566
       ],
       [
        11.564,
        48.1569
       ]
      ]
     ]
    ]
   }
  },
  {
   "type": "Feature",
   "properties": {
    "sb_codigo": "04",
    "sb_nombre": "Schwabing-West",
    "area_km2": 4.36
   },
   "geometry": {
    "type": "MultiPolygon",
    "coordinates": [
     [
      [
       [
        11.5805,
        48.1776
       ],
       [
        11.5734,
        48.178
       ],
       [
        11.5654,
        48.1761
       ],
       [
        11.5585,
        48.1761
       ],
       [
        11.5604,
        48.1741
       ],
       [
        11.5616,
        48.1684
       ],
       [
        11.5569,
        48.1685
       ],
       [
        11.5545,
        48.1677
       ],
       [
        11.5532,
        48.1662
       ],
       [
        11.553,
        48.1615
       ],
       [
        11.5496,
        48.1607
       ],
       [
        11.556,
        48.1554
       ],
       [
        11.56,
        48.1576
       ],
       [
        11.5701,
        48.1566
       ],
       [
        11.5793,
        48.1547
       ],
       [
        11.5804,
        48.1611
       ],
       [
        11.5797,
        48.1611
       ],
       [
        11.5792,
        48.1671
       ],
       [
        11.5826,
        48.1671
       ],
       [
        11.5831,
        48.1693
       ],
       [
        11.5816,
        48.1763
       ],
       [
        11.5854,
        48.1766
       ],
       [
        11.5853,
        48.1776
       ],
       [
        11.5805,
        48.1776
       ]
      ]
     ]
    ]
   }
  },
  {
   "type": "Feature",
   "properties": {
    "sb_codigo": "05",
    "sb_nombre": "Au-Haidhausen",
    "area_km2": 4.22
   },
   "geometry": {
    "type": "MultiPolygon",
    "coordinates": [
     [
      [
       [
        11.5948,
        48.1417
       ],
       [
        11.5932,
        48.1393
       ],
       [
        11.5902,
        48.1373
       ],
       [
        11.5923,
        48.1382
       ],
       [
        11.5922,
        48.1374
       ],
       [
        11.5885,
        48.1348
       ],
       [
        11.5866,
        48.1319
       ],
       [
        11.5873,
        48.1313
       ],
       [
        11.5842,
        48.1287
       ],
       [
        11.5783,
        48.1271
       ],
       [
        11.5695,
        48.1223
       ],
       [
        11.5696,
        48.1217
       ],
       [
        11.5775,
        48.1186
       ],
       [
        11.5981,
        48.1226
       ],
       [
        11.6015,
        48.1247
       ],
       [
        11.6034,
        48.1249
       ],
       [
        11.609,
        48.1286
       ],
       [
        11.6132,
        48.1326
       ],
       [
        11.619,
        48.1339
       ],
       [
        11.618,
        48.1367
       ],
       [
        11.6199,
        48.137
       ],
       [
        11.6193,
        48.1381
       ],
       [
        11.6065,
        48.1392
       ],
       [
        11.604,
        48.1378
       ],
       [
        11.6027,
        48.1381
       ],
       [
        11.6031,
        48.1401
       ],
       [
        11.5972,
        48.1411
       ],
       [
        11.5959,
        48.1403
       ],
       [
        11.5956,
        48.1415
       ],
       [
        11.5948,
        48.1417
       ]
      ]
     ]
    ]
   }
  },
  {
   "type": "Feature",
   "properties": {
    "sb_codigo": "06",
    "sb_nombre": "Sendling",
    "area_km2": 3.94
   },
   "geometry": {
    "type": "MultiPolygon",
    "coordinates": [
     [
      [
       [
        11.5367,
        48.1294
       ],
       [
        11.5354,
        48.1299
       ],
       [
        11.5372,
        48.1279
       ],
       [
        11.5378,
        48.1257
       ],
       [
        11.5359,
        48.1166
       ],
       [
        11.536,
        48.1036
       ],
       [
        11.5406,
        48.104
       ],
       [
        11.5413,
        48.1019
       ],
       [
        11.5414,
        48.1031
       ],
       [
        11.5441,
        48.1054
       ],
       [
        11.5476,
        48.105
       ],
       [
        11.5481,
        48.1057
       ],
       [
        11.5509,
        48.1045
       ],
       [
        11.5516,
        48.1066
       ],
       [
        11.5523,
        48.1067
       ],
       [
        11.5523,
        48.1059
       ],
       [
        11.5556,
        48.1045
       ],
       [
        11.5608,
        48.108
       ],
       [
        11.5617,
        48.11
       ],
       [
        11.5609,
        48.1159
       ],
       [
        11.5625,
        48.1179
       ],
       [
        11.5367,
        48.1294
       ]
      ]
     ]
    ]
   }
  },
  {
   "type": "Feature",
   "properties": {
    "sb_codigo": "07",
    "sb_nombre": "Sendling-Westpark",
    "area_km2": 7.81
   },
   "geometry": {
    "type": "MultiPolygon",
    "coordinates": [
     [
      [
       [
        11.5261,
        48.1364
       ],
       [
        11.5169,
        48.1298
       ],
       [
        11.5098,
        48.1265
       ],
       [
        11.5086,
        48.1252
       ],
       [
        11.5027,
        48.1258
       ],
       [
        11.5022,
        48.1059
       ],
       [
        11.5015,
        48.1029
       ],
       [
        11.5064,
        48.0991
       ],
       [
        11.5087,
        48.099
       ],
       [
        11.5089,
        48.101
       ],
       [
        11.5122,
        48.1017
       ],
       [
        11.5175,
        48.1045
       ],
       [
        11.5189,
        48.1031
       ],
       [
        11.5307,
        48.1036
       ],
       [
        11.5353,
        48.1052
       ],
       [
        11.536,
        48.1036
       ],
       [
        11.5359,
        48.1166
       ],
       [
        11.5376,
        48.1269
       ],
       [
        11.5357,
        48.1296
       ],
       [
        11.5261,
        48.1364
       ]
      ]
     ]
    ]
   }
  },
  {
   "type": "Feature",
   "properties": {
    "sb_codigo": "08",
    "sb_nombre": "Schwanthalerhöhe",
    "area_km2": 2.07
   },
   "geometry": {
    "type": "MultiPolygon",
    "coordinates": [
     [
      [
       [
        11.542,
        48.1426
       ],
       [
        11.5344,
        48.1428
       ],
       [
        11.5342,
        48.1414
       ],
       [
        11.5311,
        48.1416
       ],
       [
        11.5272,
        48.1405
       ],
       [
        11.526,
        48.1365
       ],
       [
        11.5354,
        48.1299
       ],
       [
        11.5442,
        48.1264
       ],
       [
        11.5466,
        48.1305
       ],
       [
        11.5462,
        48.1317
       ],
       [
        11.5476,
        48.1351
       ],
       [
        11.5495,
        48.1366
       ],
       [
        11.5498,
        48.1389
       ],
       [
        11.547,
        48.1393
       ],
       [
        11.5484,
        48.1421
       ],
       [
        11.542,
        48.1426
       ]
      ]
     ]
    ]
   }
  },
  {
   "type": "Feature",
   "properties": {
    "sb_codigo": "09",
    "sb_nombre": "Neuhausen-Nymphenburg",
    "area_km2": 12.91
   },
   "geometry": {
    "type": "MultiPolygon",
    "coordinates": [
     [
      [
       [
        11.5487,
        48.1701
       ],
       [
        11.5481,
        48.1706
       ],
       [
        11.5445,
        48.17
       ],
       [
        11.5352,
        48.1673
       ],
       [
        11.5348,
        48.168
       ],
       [
        11.5319,
        48.1675
       ],
       [
        11.531,
        48.1694
       ],
       [
        11.5165,
        48.1677
       ],
       [
        11.5107,
        48.1699
       ],
       [
        11.5097,
        48.1676
       ],
       [
        11.4987,
        48.1677
       ],
       [
        11.4984,
        48.1667
       ],
       [
        11.4968,
        48.1668
       ],
       [
        11.4964,
        48.1657
       ],
       [
        11.4972,
        48.1655
       ],
       [
        11.4925,
        48.1658
       ],
       [
        11.4889,
        48.1627
       ],
       [
        11.4834,
        48.1627
       ],
       [
        11.4817,
        48.1603
       ],
       [
        11.4813,
        48.1576
       ],
       [
        11.4825,
        48.1537
       ],
       [
        11.4843,
        48.1512
       ],
       [
        11.4882,
        48.1479
       ],
       [
        11.4925,
        48.1461
       ],
       [
        11.5114,
        48.1434
       ],
       [
        11.5389,
        48.1428
       ],
       [
        11.5468,
        48.1498
       ],
       [
        11.548,
        48.1496
       ],
       [
        11.5495,
        48.1519
       ],
       [
        11.556,
        48.1554
       ],
       [
        11.5496,
        48.1607
       ],
       [
        11.553,
        48.1615
       ],
       [
        11.5532,
        48.1662
       ],
       [
        11.5545,
        48.1677
       ],
       [
        11.5502,
        48.1683
       ],
       [
        11.5487,
        48.1701
       ]
      ]
     ]
    ]
   }
  },
  {
   "type": "Feature",
   "properties": {
    "sb_codigo": "10",
    "sb_nombre": "Moosach",
    "area_km2": 11.09
   },
   "geometry": {
    "type": "MultiPolygon",
    "coordinates": [
     [
      [
       [
        11.4696,
        48.204
       ],
       [
        11.4661,
        48.2052
       ],
       [
        11.4657,
        48.2047
       ],
       [
        11.4726,
        48.2021
       ],
       [
        11.4777,
        48.1983
       ],
       [
        11.4896,
        48.1948
       ],
       [
        11.4905,
        48.1896
       ],
       [
        11.4887,
        48.175
       ],
       [
        11.4905,
        48.1742
       ],
       [
        11.4901,
        48.1726
       ],
       [
        11.4913,
        48.1685
       ],
       [
        11.4907,
        48.1677
       ],
       [
        11.4915,
        48.1676
       ],
       [
        11.4918,
        48.1655
       ],
       [
        11.4972,
        48.1655
       ],
       [
        11.4964,
        48.1657
       ],
       [
        11.4968,
        48.1668
       ],
       [
        11.4984,
        48.1667
       ],
       [
        11.4987,
        48.1677
       ],
       [
        11.5097,
        48.1676
       ],
       [
        11.5107,
        48.1699
       ],
       [
        11.5165,
        48.1677
       ],
       [
        11.531,
        48.1694
       ],
       [
        11.5324,
        48.1674
       ],
       [
        11.5381,
        48.1682
       ],
       [
        11.5405,
        48.1762
       ],
       [
        11.5399,
        48.1807
       ],
       [
        11.5415,
        48.1889
       ],
       [
        11.5354,
        48.1884
       ],
       [
        11.5275,
        48.1899
       ],
       [
        11.5118,
        48.1937
       ],
       [
        11.5065,
        48.1962
       ],
       [
        11.4944,
        48.1988
       ],
       [
        11.4835,
        48.1998
       ],
       [
        11.4696,
        48.204
       ]
      ]
     ]
    ]
   }
  },
  {
   "type": "Feature",
   "properties": {
    "sb_codigo": "11",
    "sb_nombre": "Milbertshofen-Am Hart",
    "area_km2": 13.42
   },
   "geometry": {
    "type": "MultiPolygon",
    "coordinates": [
     [
      [
       [
        11.5871,
        48.2241
       ],
       [
        11.5823,
        48.2286
       ],
       [
        11.565,
        48.2272
       ],
       [
        11.5632,
        48.2248
       ],
       [
        11.5646,
        48.2229
       ],
       [
        11.564,
        48.2227
       ],
       [
        11.5645,
        48.2218
       ],
       [
        11.5623,
        48.22
       ],
       [
        11.5631,
        48.2197
       ],
       [
        11.562,
        48.2167
       ],
       [
        11.5656,
        48.1906
       ],
       [
        11.5494,
        48.1902
       ],
       [
        11.5415,
        48.1889
       ],
       [
        11.5399,
        48.1807
       ],
       [
        11.5405,
        48.1762
       ],
       [
        11.5381,
        48.1682
       ],
       [
        11.5481,
        48.1706
       ],
       [
        11.5502,
        48.1683
       ],
       [
        11.5545,
        48.1677
       ],
       [
        11.5569,
        48.1685
       ],
       [
        11.5616,
        48.1684
       ],
       [
        11.5604,
        48.1741
       ],
       [
        11.5585,
        48.1761
       ],
       [
        11.5654,
        48.1761
       ],
       [
        11.5734,
        48.178
       ],
       [
        11.5853,
        48.1776
       ],
       [
        11.584,
        48.193
       ],
       [
        11.5888,
        48.1934
       ],
       [
        11.5906,
        48.2014
       ],
       [
        11.5853,
        48.201
       ],
       [
        11.5877,
        48.2135
       ],
       [
        11.5871,
        48.2241
       ]
      ]
     ]
    ]
   }
  },
  {
   "type": "Feature",
   "properties": {
    "sb_codigo": "12",
    "sb_nombre": "Schwabing-Freimann",
    "area_km2": 25.67
   },
   "geometry": {
    "type": "MultiPolygon",
    "coordinates": [
     [
      [
       [
        11.6255,
        48.229
       ],
       [
        11.6224,
        48.2287
       ],
       [
        11.6225,
        48.2276
       ],
       [
        11.6142,
        48.2279
       ],
       [
        11.6129,
        48.2256
       ],
       [
        11.6081,
        48.2257
       ],
       [
        11.6075,
        48.2273
       ],
       [
        11.6091,
        48.2276
       ],
       [
        11.6089,
        48.2284
       ],
       [
        11.6071,
        48.2282
       ],
       [
        11.6075,
        48.2273
       ],
       [
        11.6057,
        48.2268
       ],
       [
        11.6116,
        48.2191
       ],
       [
        11.6062,
        48.2192
       ],
       [
        11.6063,
        48.2184
       ],
       [
        11.6048,
        48.2183
       ],
       [
        11.605,
        48.2175
       ],
       [
        11.6018,
        48.2169
       ],
       [
        11.6018,
        48.2133
       ],
       [
        11.5877,
        48.2135
       ],
       [
        11.5853,
        48.201
       ],
       [
        11.5906,
        48.2014
       ],
       [
        11.5903,
        48.1987
       ],
       [
        11.5897,
        48.1968
       ],
       [
        11.5891,
        48.1969
       ],
       [
        11.5888,
        48.1934
       ],
       [
        11.584,
        48.193
       ],
       [
        11.5854,
        48.1766
       ],
       [
        11.5816,
        48.1763
       ],
       [
        11.5831,
        48.1693
       ],
       [
        11.5826,
        48.1671
       ],
       [
        11.5791,
        48.1667
       ],
       [
        11.5797,
        48.1611
       ],
       [
        11.5804,
        48.1611
       ],
       [
        11.5793,
        48.1547
       ],
       [
        11.5827,
        48.1541
       ],
       [
        11.582,
        48.1521
       ],
       [
        11.5853,
        48.1517
       ],
       [
        11.5877,
        48.1533
       ],
       [
        11.5882,
        48.1529
       ],
       [
        11.59,
        48.1545
       ],
       [
        11.5894,
        48.1566
       ],
       [
        11.5913,
        48.1565
       ],
       [
        11.5941,
        48.1517
       ],
       [
        11.5983,
        48.1494
       ],
       [
        11.6264,
        48.1806
       ],
       [
        11.6284,
        48.1795
       ],
       [
        11.6315,
        48.1831
       ],
       [
        11.6293,
        48.1843
       ],
       [
        11.6377,
        48.1976
       ],
       [
        11.6391,
        48.2038
       ],
       [
        11.6413,
        48.2061
       ],
       [
        11.6476,
        48.2094
       ],
       [
        11.6498,
        48.2118
       ],
       [
        11.6507,
        48.2143
       ],
       [
        11.6505,
        48.217
       ],
       [
        11.6392,
        48.2218
       ],
       [
        11.6383,
        48.2246
       ],
       [
        11.6395,
        48.2257
       ],
       [
        11.6255,
        48.229
       ]
      ]
     ]
    ]
   }
  },
  {
   "type": "Feature",
   "properties": {
    "sb_codigo": "13",
    "sb_nombre": "Bogenhausen",
    "area_km2": 23.71
   },
   "geometry": {
    "type": "MultiPolygon",
    "coordinates": [
     [
      [
       [
        11.6952,
        48.1802
       ],
       [
        11.692,
        48.1825
       ],
       [
        11.689,
        48.1828
       ],
       [
        11.689,
        48.1818
       ],
       [
        11.6868,
        48.1804
       ],
       [
        11.6622,
        48.1829
       ],
       [
        11.661,
        48.1817
       ],
       [
        11.661,
        48.1797
       ],
       [
        11.6655,
        48.177
       ],
       [
        11.6655,
        48.1762
       ],
       [
        11.641,
        48.1734
       ],
       [
        11.6359,
        48.1749
       ],
       [
        11.6372,
        48.1764
       ],
       [
        11.6315,
        48.1779
       ],
       [
        11.6304,
        48.1771
       ],
       [
        11.6277,
        48.1773
       ],
       [
        11.6284,
        48.1795
       ],
       [
        11.6264,
        48.1806
       ],
       [
        11.5968,
        48.1478
       ],
       [
        11.5948,
        48.1417
       ],
       [
        11.5956,
        48.1415
       ],
       [
        11.5959,
        48.1403
       ],
       [
        11.5972,
        48.1411
       ],
       [
        11.6031,
        48.1401
       ],
       [
        11.6027,
        48.1381
       ],
       [
        11.604,
        48.1378
       ],
       [
        11.6065,
        48.1392
       ],
       [
        11.6193,
        48.1381
       ],
       [
        11.6199,
        48.137
       ],
       [
        11.618,
        48.1367
       ],
       [
        11.6187,
        48.135
       ],
       [
        11.6238,
        48.136
       ],
       [
        11.633,
        48.1352
       ],
       [
        11.64,
        48.1365
       ],
       [
        11.6531,
        48.1354
       ],
       [
        11.6537,
        48.1341
       ],
       [
        11.6655,
        48.1403
       ],
       [
        11.6637,
        48.1406
       ],
       [
        11.667,
        48.1528
       ],
       [
        11.667,
        48.1592
       ],
       [
        11.6708,
        48.1585
       ],
       [
        11.6742,
        48.1567
       ],
       [
        11.6857,
        48.1675
       ],
       [
        11.6867,
        48.1697
       ],
       [
        11.6858,
        48.1718
       ],
       [
        11.6933,
        48.1706
       ],
       [
        11.6961,
        48.1743
       ],
       [
        11.6907,
        48.1782
       ],
       [
        11.6952,
        48.1802
       ]
      ]
     ]
    ]
   }
  },
  {
   "type": "Feature",
   "properties": {
    "sb_codigo": "14",
    "sb_nombre": "Berg am Laim",
    "area_km2": 6.32
   },
   "geometry": {
    "type": "MultiPolygon",
    "coordinates": [
     [
      [
       [
        11.6455,
        48.136
       ],
       [
        11.6393,
        48.1365
       ],
       [
        11.633,
        48.1352
       ],
       [
        11.6238,
        48.136
       ],
       [
        11.6187,
        48.135
       ],
       [
        11.619,
        48.1339
       ],
       [
        11.6132,
        48.1326
       ],
       [
        11.6088,
        48.1284
       ],
       [
        11.6033,
        48.1248
       ],
       [
        11.6011,
        48.1244
       ],
       [
        11.6061,
        48.1208
       ],
       [
        11.6258,
        48.1198
       ],
       [
        11.6381,
        48.1175
       ],
       [
        11.6465,
        48.1145
       ],
       [
        11.6565,
        48.1285
       ],
       [
        11.6551,
        48.1301
       ],
       [
        11.6531,
        48.1354
       ],
       [
        11.6455,
        48.136
       ]
      ]
     ]
    ]
   }
  },
  {
   "type": "Feature",
   "properties": {
    "sb_codigo": "15",
    "sb_nombre": "Trudering-Riem",
    "area_km2": 22.45
   },
   "geometry": {
    "type": "MultiPolygon",
    "coordinates": [
     [
      [
       [
        11.6696,
        48.1587
       ],
       [
        11.667,
        48.1592
       ],
       [
        11.667,
        48.1528
       ],
       [
        11.6637,
        48.1406
       ],
       [
        11.6655,
        48.1403
       ],
       [
        11.6537,
        48.1341
       ],
       [
        11.6551,
        48.1301
       ],
       [
        11.6565,
        48.1285
       ],
       [
        11.6465,
        48.1145
       ],
       [
        11.6437,
        48.1151
       ],
       [
        11.6496,
        48.1111
       ],
       [
        11.6551,
        48.1108
       ],
       [
        11.6611,
        48.1085
       ],
       [
        11.6669,
        48.1045
       ],
       [
        11.6649,
        48.1022
       ],
       [
        11.6651,
        48.1009
       ],
       [
        11.6838,
        48.0968
       ],
       [
        11.6871,
        48.0935
       ],
       [
        11.6942,
        48.0971
       ],
       [
        11.6966,
        48.0974
       ],
       [
        11.7089,
        48.1023
       ],
       [
        11.7127,
        48.1049
       ],
       [
        11.7146,
        48.1111
       ],
       [
        11.7089,
        48.1142
       ],
       [
        11.7107,
        48.1156
       ],
       [
        11.694,
        48.1193
       ],
       [
        11.6976,
        48.1212
       ],
       [
        11.6942,
        48.1231
       ],
       [
        11.6977,
        48.1253
       ],
       [
        11.7043,
        48.1214
       ],
       [
        11.7089,
        48.1226
       ],
       [
        11.7107,
        48.124
       ],
       [
        11.712,
        48.123
       ],
       [
        11.7139,
        48.1243
       ],
       [
        11.7162,
        48.1282
       ],
       [
        11.7145,
        48.1296
       ],
       [
        11.7134,
        48.1291
       ],
       [
        11.7117,
        48.1301
       ],
       [
        11.7144,
        48.1314
       ],
       [
        11.7123,
        48.1334
       ],
       [
        11.7145,
        48.134
       ],
       [
        11.7153,
        48.1328
       ],
       [
        11.7205,
        48.1343
       ],
       [
        11.7197,
        48.1355
       ],
       [
        11.7229,
        48.1371
       ],
       [
        11.7205,
        48.1391
       ],
       [
        11.7179,
        48.1377
       ],
       [
        11.7149,
        48.1385
       ],
       [
        11.7099,
        48.1418
       ],
       [
        11.7128,
        48.1432
       ],
       [
        11.711,
        48.1446
       ],
       [
        11.7133,
        48.1454
       ],
       [
        11.7097,
        48.1481
       ],
       [
        11.6782,
        48.1443
       ],
       [
        11.6798,
        48.1533
       ],
       [
        11.6696,
        48.1587
       ]
      ]
     ]
    ]
   }
  },
  {
   "type": "Feature",
   "properties": {
    "sb_codigo": "16",
    "sb_nombre": "Ramersdorf-Perlach",
    "area_km2": 19.9
   },
   "geometry": {
    "type": "MultiPolygon",
    "coordinates": [
     [
      [
       [
        11.6009,
        48.1244
       ],
       [
        11.5969,
        48.1215
       ],
       [
        11.5954,
        48.1163
       ],
       [
        11.5955,
        48.1135
       ],
       [
        11.5979,
        48.1077
       ],
       [
        11.5999,
        48.1031
       ],
       [
        11.6051,
        48.0958
       ],
       [
        11.6083,
        48.0946
       ],
       [
        11.6148,
        48.0944
       ],
       [
        11.6163,
        48.0884
       ],
       [
        11.6238,
        48.0881
       ],
       [
        11.6237,
        48.0873
       ],
       [
        11.633,
        48.086
       ],
       [
        11.633,
        48.0843
       ],
       [
        11.6656,
        48.0782
       ],
       [
        11.6717,
        48.0781
       ],
       [
        11.6737,
        48.0788
       ],
       [
        11.6857,
        48.0775
       ],
       [
        11.6841,
        48.0791
       ],
       [
        11.6835,
        48.0815
       ],
       [
        11.6813,
        48.083
       ],
       [
        11.681,
        48.0841
       ],
       [
        11.683,
        48.0921
       ],
       [
        11.6887,
        48.0922
       ],
       [
        11.6838,
        48.0968
       ],
       [
        11.6651,
        48.1009
       ],
       [
        11.6649,
        48.1022
       ],
       [
        11.6669,
        48.1045
       ],
       [
        11.6611,
        48.1085
       ],
       [
        11.6551,
        48.1108
       ],
       [
        11.6496,
        48.1111
       ],
       [
        11.64,
        48.1169
       ],
       [
        11.6242,
        48.1201
       ],
       [
        11.6061,
        48.1208
       ],
       [
        11.6009,
        48.1244
       ]
      ]
     ]
    ]
   }
  },
  {
   "type": "Feature",
   "properties": {
    "sb_codigo": "17",
    "sb_nombre": "Obergiesing-Fasangarten",
    "area_km2": 5.72
   },
   "geometry": {
    "type": "MultiPolygon",
    "coordinates": [
     [
      [
       [
        11.598,
        48.1226
       ],
       [
        11.5771,
        48.1186
       ],
       [
        11.5768,
        48.1159
       ],
       [
        11.5738,
        48.112
       ],
       [
        11.5771,
        48.1113
       ],
       [
        11.579,
        48.1093
       ],
       [
        11.5822,
        48.1045
       ],
       [
        11.5816,
        48.1043
       ],
       [
        11.5822,
        48.1032
       ],
       [
        11.5817,
        48.0987
       ],
       [
        11.5852,
        48.0997
       ],
       [
        11.5883,
        48.0946
       ],
       [
        11.5854,
        48.0935
       ],
       [
        11.5886,
        48.0934
       ],
       [
        11.5926,
        48.0851
       ],
       [
        11.6018,
        48.0873
       ],
       [
        11.6035,
        48.0851
       ],
       [
        11.6065,
        48.0868
       ],
       [
        11.6119,
        48.0871
       ],
       [
        11.6116,
        48.0881
       ],
       [
        11.6163,
        48.0884
       ],
       [
        11.6148,
        48.0944
       ],
       [
        11.6059,
        48.0953
       ],
       [
        11.5999,
        48.1031
       ],
       [
        11.5953,
        48.1152
       ],
       [
        11.5964,
        48.1207
       ],
       [
        11.598,
        48.1226
       ]
      ]
     ]
    ]
   }
  },
  {
   "type": "Feature",
   "properties": {
    "sb_codigo": "18",
    "sb_nombre": "Untergiesing-Harlaching",
    "area_km2": 8.06
   },
   "geometry": {
    "type": "MultiPolygon",
    "coordinates": [
     [
      [
       [
        11.5571,
        48.0794
       ],
       [
        11.5578,
        48.0796
       ],
       [
        11.5564,
        48.0804
       ],
       [
        11.5561,
        48.0799
       ],
       [
        11.5571,
        48.0794
       ]
      ]
     ],
     [
      [
       [
        11.5696,
        48.122
       ],
       [
        11.5648,
        48.1198
       ],
       [
        11.5611,
        48.1163
       ],
       [
        11.5617,
        48.1099
       ],
       [
        11.5606,
        48.1077
       ],
       [
        11.5505,
        48.1014
       ],
       [
        11.5504,
        48.0914
       ],
       [
        11.5442,
        48.0837
       ],
       [
        11.5413,
        48.0779
       ],
       [
        11.5424,
        48.0779
       ],
       [
        11.5416,
        48.0754
       ],
       [
        11.5436,
        48.0735
       ],
       [
        11.5431,
        48.073
       ],
       [
        11.544,
        48.0719
       ],
       [
        11.5441,
        48.0683
       ],
       [
        11.5454,
        48.0681
       ],
       [
        11.549,
        48.0746
       ],
       [
        11.5499,
        48.0747
       ],
       [
        11.5492,
        48.0749
       ],
       [
        11.5539,
        48.085
       ],
       [
        11.5625,
        48.0836
       ],
       [
        11.5629,
        48.0852
       ],
       [
        11.5744,
        48.0888
       ],
       [
        11.5883,
        48.0946
       ],
       [
        11.5852,
        48.0997
       ],
       [
        11.5817,
        48.0986
       ],
       [
        11.5822,
        48.1032
       ],
       [
        11.5816,
        48.1043
       ],
       [
        11.5822,
        48.1045
       ],
       [
        11.578,
        48.1106
       ],
       [
        11.5738,
        48.112
       ],
       [
        11.5768,
        48.1159
       ],
       [
        11.577,
        48.1188
       ],
       [
        11.5696,
        48.122
       ]
      ]
     ]
    ]
   }
  },
  {
   "type": "Feature",
   "properties": {
    "sb_codigo": "19",
    "sb_nombre": "Thalkirchen-Obersendling-Forstenried-Fürstenried-Solln",
    "area_km2": 17.76
   },
   "geometry": {
    "type": "MultiPolygon",
    "coordinates": [
     [
      [
       [
        11.4909,
        48.0741
       ],
       [
        11.4902,
        48.0738
       ],
       [
        11.4909,
        48.0741
       ]
      ]
     ],
     [
      [
       [
        11.552,
        48.1068
       ],
       [
        11.5509,
        48.1045
       ],
       [
        11.5481,
        48.1057
       ],
       [
        11.5476,
        48.105
       ],
       [
        11.5441,
        48.1054
       ],
       [
        11.5414,
        48.1031
       ],
       [
        11.5413,
        48.1019
       ],
       [
        11.5406,
        48.104
       ],
       [
        11.5356,
        48.1035
       ],
       [
        11.5353,
        48.1052
       ],
       [
        11.5307,
        48.1036
       ],
       [
        11.5189,
        48.1031
       ],
       [
        11.5175,
        48.1045
       ],
       [
        11.5122,
        48.1017
       ],
       [
        11.5089,
        48.101
       ],
       [
        11.5085,
        48.099
       ],
       [
        11.5064,
        48.0991
       ],
       [
        11.5016,
        48.1027
       ],
       [
        11.4865,
        48.0959
       ],
       [
        11.4821,
        48.0954
       ],
       [
        11.4801,
        48.0976
       ],
       [
        11.4763,
        48.0965
       ],
       [
        11.474,
        48.0958
       ],
       [
        11.4735,
        48.0927
       ],
       [
        11.4721,
        48.0901
       ],
       [
        11.4763,
        48.0888
       ],
       [
        11.4709,
        48.0832
       ],
       [
        11.4733,
        48.0822
       ],
       [
        11.4719,
        48.0818
       ],
       [
        11.4729,
        48.0812
       ],
       [
        11.4734,
        48.0821
       ],
       [
        11.487,
        48.0764
       ],
       [
        11.4858,
        48.0742
       ],
       [
        11.4871,
        48.0738
       ],
       [
        11.488,
        48.075
       ],
       [
        11.4866,
        48.0754
       ],
       [
        11.4872,
        48.0763
       ],
       [
        11.5036,
        48.0693
       ],
       [
        11.5026,
        48.0669
       ],
       [
        11.5037,
        48.0655
       ],
       [
        11.5042,
        48.0624
       ],
       [
        11.5088,
        48.0616
       ],
       [
        11.5115,
        48.0644
       ],
       [
        11.5156,
        48.0634
       ],
       [
        11.517,
        48.0664
       ],
       [
        11.5188,
        48.0673
       ],
       [
        11.5221,
        48.0673
       ],
       [
        11.5221,
        48.0665
       ],
       [
        11.523,
        48.0665
       ],
       [
        11.5239,
        48.0684
       ],
       [
        11.5283,
        48.069
       ],
       [
        11.5291,
        48.0719
       ],
       [
        11.533,
        48.0775
       ],
       [
        11.5413,
        48.0779
       ],
       [
        11.5442,
        48.0837
       ],
       [
        11.5504,
        48.0914
       ],
       [
        11.5504,
        48.1011
       ],
       [
        11.5551,
        48.1047
       ],
       [
        11.552,
        48.1068
       ]
      ]
     ]
    ]
   }
  },
  {
   "type": "Feature",
   "properties": {
    "sb_codigo": "20",
    "sb_nombre": "Hadern",
    "area_km2": 9.22
   },
   "geometry": {
    "type": "MultiPolygon",
    "coordinates": [
     [
      [
       [
        11.478,
        48.1305
       ],
       [
        11.465,
        48.1282
       ],
       [
        11.4656,
        48.118
       ],
       [
        11.4651,
        48.1147
       ],
       [
        11.4634,
        48.1145
       ],
       [
        11.463,
        48.1053
       ],
       [
        11.4696,
        48.1052
       ],
       [
        11.4697,
        48.1058
       ],
       [
        11.4749,
        48.1046
       ],
       [
        11.4709,
        48.0994
       ],
       [
        11.474,
        48.0958
       ],
       [
        11.4801,
        48.0976
       ],
       [
        11.4821,
        48.0954
       ],
       [
        11.4865,
        48.0959
       ],
       [
        11.5016,
        48.1027
       ],
       [
        11.5027,
        48.1258
       ],
       [
        11.498,
        48.1254
       ],
       [
        11.4956,
        48.1278
       ],
       [
        11.491,
        48.1298
       ],
       [
        11.4836,
        48.1302
       ],
       [
        11.4787,
        48.1293
       ],
       [
        11.478,
        48.1305
       ]
      ]
     ]
    ]
   }
  },
  {
   "type": "Feature",
   "properties": {
    "sb_codigo": "21",
    "sb_nombre": "Pasing-Obermenzing",
    "area_km2": 16.5
   },
   "geometry": {
    "type": "MultiPolygon",
    "coordinates": [
     [
      [
       [
        11.4606,
        48.175
       ],
       [
        11.4607,
        48.1765
       ],
       [
        11.4485,
        48.1738
       ],
       [
        11.4445,
        48.1756
       ],
       [
        11.4375,
        48.1747
       ],
       [
        11.4395,
        48.1723
       ],
       [
        11.4381,
        48.1713
       ],
       [
        11.4404,
        48.1695
       ],
       [
        11.4351,
        48.1658
       ],
       [
        11.4329,
        48.163
       ],
       [
        11.4476,
        48.1541
       ],
       [
        11.4536,
        48.1527
       ],
       [
        11.4533,
        48.1517
       ],
       [
        11.4476,
        48.1507
       ],
       [
        11.4438,
        48.1486
       ],
       [
        11.4364,
        48.1367
       ],
       [
        11.4386,
        48.1354
       ],
       [
        11.4381,
        48.1346
       ],
       [
        11.4475,
        48.1336
       ],
       [
        11.447,
        48.1331
       ],
       [
        11.4481,
        48.1311
       ],
       [
        11.4498,
        48.1329
       ],
       [
        11.4512,
        48.1325
       ],
       [
        11.4514,
        48.1333
       ],
       [
        11.4601,
        48.132
       ],
       [
        11.4595,
        48.1309
       ],
       [
        11.4637,
        48.1299
       ],
       [
        11.465,
        48.1282
       ],
       [
        11.4779,
        48.1308
       ],
       [
        11.4787,
        48.1293
       ],
       [
        11.483,
        48.1301
       ],
       [
        11.4836,
        48.1339
       ],
       [
        11.4896,
        48.1442
       ],
       [
        11.4885,
        48.1447
       ],
       [
        11.4892,
        48.1474
       ],
       [
        11.4851,
        48.1504
       ],
       [
        11.4827,
        48.1534
       ],
       [
        11.4813,
        48.1589
       ],
       [
        11.4834,
        48.1627
       ],
       [
        11.4889,
        48.1627
       ],
       [
        11.492,
        48.1653
       ],
       [
        11.4915,
        48.1676
       ],
       [
        11.4907,
        48.1677
       ],
       [
        11.4913,
        48.1685
       ],
       [
        11.4902,
        48.1725
       ],
       [
        11.4841,
        48.1723
       ],
       [
        11.4819,
        48.1709
       ],
       [
        11.4747,
        48.1757
       ],
       [
        11.4719,
        48.1766
       ],
       [
        11.4655,
        48.1746
       ],
       [
        11.4605,
        48.1745
       ],
       [
        11.4606,
        48.175
       ]
      ]
     ]
    ]
   }
  },
  {
   "type": "Feature",
   "properties": {
    "sb_codigo": "22",
    "sb_nombre": "Aubing-Lochhausen-Langwied",
    "area_km2": 34.06
   },
   "geometry": {
    "type": "MultiPolygon",
    "coordinates": [
     [
      [
       [
        11.4319,
        48.2045
       ],
       [
        11.4321,
        48.2052
       ],
       [
        11.4197,
        48.2035
       ],
       [
        11.4188,
        48.2028
       ],
       [
        11.3908,
        48.2005
       ],
       [
        11.3885,
        48.1908
       ],
       [
        11.3923,
        48.1896
       ],
       [
        11.3913,
        48.1855
       ],
       [
        11.3933,
        48.1845
       ],
       [
        11.3909,
        48.1815
       ],
       [
        11.3853,
        48.1776
       ],
       [
        11.3811,
        48.1793
       ],
       [
        11.3751,
        48.1791
       ],
       [
        11.3712,
        48.1783
       ],
       [
        11.3691,
        48.1764
       ],
       [
        11.3697,
        48.1743
       ],
       [
        11.3683,
        48.1694
       ],
       [
        11.3654,
        48.1644
       ],
       [
        11.3628,
        48.163
       ],
       [
        11.3608,
        48.1581
       ],
       [
        11.3712,
        48.1584
       ],
       [
        11.3698,
        48.1568
       ],
       [
        11.3752,
        48.1555
       ],
       [
        11.3739,
        48.1555
       ],
       [
        11.3739,
        48.1535
       ],
       [
        11.378,
        48.1532
       ],
       [
        11.378,
        48.1538
       ],
       [
        11.3795,
        48.1538
       ],
       [
        11.3829,
        48.1531
       ],
       [
        11.3832,
        48.1497
       ],
       [
        11.384,
        48.1498
       ],
       [
        11.384,
        48.149
       ],
       [
        11.3855,
        48.1497
       ],
       [
        11.3872,
        48.1473
       ],
       [
        11.3891,
        48.1479
       ],
       [
        11.3913,
        48.1419
       ],
       [
        11.3895,
        48.1412
       ],
       [
        11.3922,
        48.1367
       ],
       [
        11.3882,
        48.1346
       ],
       [
        11.3894,
        48.1317
       ],
       [
        11.3887,
        48.1297
       ],
       [
        11.3896,
        48.1279
       ],
       [
        11.393,
        48.1285
       ],
       [
        11.3944,
        48.1255
       ],
       [
        11.4023,
        48.1252
       ],
       [
        11.409,
        48.1262
       ],
       [
        11.4224,
        48.1323
       ],
       [
        11.4263,
        48.1365
       ],
       [
        11.43,
        48.1376
       ],
       [
        11.436,
        48.1361
       ],
       [
        11.4438,
        48.1486
       ],
       [
        11.4476,
        48.1507
       ],
       [
        11.4533,
        48.1517
       ],
       [
        11.4536,
        48.1527
       ],
       [
        11.4476,
        48.1541
       ],
       [
        11.4329,
        48.163
       ],
       [
        11.4351,
        48.1658
       ],
       [
        11.4404,
        48.1695
       ],
       [
        11.4381,
        48.1713
       ],
       [
        11.4395,
        48.1723
       ],
       [
        11.4375,
        48.1747
       ],
       [
        11.4419,
        48.1754
       ],
       [
        11.4366,
        48.1794
       ],
       [
        11.4365,
        48.1824
       ],
       [
        11.4375,
        48.1836
       ],
       [
        11.4315,
        48.1861
       ],
       [
        11.4304,
        48.1888
       ],
       [
        11.4375,
        48.1899
       ],
       [
        11.4368,
        48.1995
       ],
       [
        11.4387,
        48.2021
       ],
       [
        11.4424,
        48.2039
       ],
       [
        11.4319,
        48.2045
       ]
      ]
     ]
    ]
   }
  },
  {
   "type": "Feature",
   "properties": {
    "sb_codigo": "23",
    "sb_nombre": "Allach-Untermenzing",
    "area_km2": 15.45
   },
   "geometry": {
    "type": "MultiPolygon",
    "coordinates": [
     [
      [
       [
        11.4844,
        48.2128
       ],
       [
        11.4771,
        48.2196
       ],
       [
        11.473,
        48.2194
       ],
       [
        11.4622,
        48.2148
       ],
       [
        11.4604,
        48.2132
       ],
       [
        11.4605,
        48.212
       ],
       [
        11.4591,
        48.2116
       ],
       [
        11.4576,
        48.2088
       ],
       [
        11.4435,
        48.2064
       ],
       [
        11.4324,
        48.2058
       ],
       [
        11.4319,
        48.2043
       ],
       [
        11.4424,
        48.2039
       ],
       [
        11.4387,
        48.2021
       ],
       [
        11.4368,
        48.1995
       ],
       [
        11.4375,
        48.1899
       ],
       [
        11.4304,
        48.1888
       ],
       [
        11.4315,
        48.1861
       ],
       [
        11.4375,
        48.1836
       ],
       [
        11.4365,
        48.1824
       ],
       [
        11.4365,
        48.1802
       ],
       [
        11.4376,
        48.1782
       ],
       [
        11.4419,
        48.1754
       ],
       [
        11.4455,
        48.1755
       ],
       [
        11.4485,
        48.1738
       ],
       [
        11.4607,
        48.1765
       ],
       [
        11.4605,
        48.1745
       ],
       [
        11.4641,
        48.1744
       ],
       [
        11.4719,
        48.1766
       ],
       [
        11.4747,
        48.1757
       ],
       [
        11.4819,
        48.1709
       ],
       [
        11.4841,
        48.1723
       ],
       [
        11.4906,
        48.1727
       ],
       [
        11.4905,
        48.1742
       ],
       [
        11.4887,
        48.175
       ],
       [
        11.4905,
        48.1896
       ],
       [
        11.4896,
        48.1948
       ],
       [
        11.4777,
        48.1983
       ],
       [
        11.4726,
        48.2021
       ],
       [
        11.4657,
        48.2047
       ],
       [
        11.4661,
        48.2052
       ],
       [
        11.4816,
        48.2003
       ],
       [
        11.4816,
        48.2016
       ],
       [
        11.4829,
        48.2029
       ],
       [
        11.4823,
        48.2099
       ],
       [
        11.4847,
        48.2106
       ],
       [
        11.4844,
        48.2128
       ]
      ]
     ]
    ]
   }
  },
  {
   "type": "Feature",
   "properties": {
    "sb_codigo": "24",
    "sb_nombre": "Feldmoching-Hasenbergl",
    "area_km2": 28.94
   },
   "geometry": {
    "type": "MultiPolygon",
    "coordinates": [
     [
      [
       [
        11.5259,
        48.2403
       ],
       [
        11.5254,
        48.2413
       ],
       [
        11.5133,
        48.2457
       ],
       [
        11.5014,
        48.2481
       ],
       [
        11.491,
        48.2458
       ],
       [
        11.4906,
        48.2435
       ],
       [
        11.4916,
        48.2418
       ],
       [
        11.4909,
        48.2409
       ],
       [
        11.4919,
        48.2397
       ],
       [
        11.4915,
        48.2382
       ],
       [
        11.4895,
        48.238
       ],
       [
        11.49,
        48.2348
       ],
       [
        11.4877,
        48.2321
       ],
       [
        11.4889,
        48.2235
       ],
       [
        11.4911,
        48.2231
       ],
       [
        11.4771,
        48.2196
       ],
       [
        11.4845,
        48.2129
       ],
       [
        11.4847,
        48.2106
       ],
       [
        11.4823,
        48.2099
       ],
       [
        11.4829,
        48.2029
       ],
       [
        11.4816,
        48.2016
       ],
       [
        11.4816,
        48.2003
       ],
       [
        11.4883,
        48.1989
       ],
       [
        11.4944,
        48.1988
       ],
       [
        11.504,
        48.1967
       ],
       [
        11.5118,
        48.1937
       ],
       [
        11.5342,
        48.1885
       ],
       [
        11.5494,
        48.1902
       ],
       [
        11.5656,
        48.1906
       ],
       [
        11.562,
        48.2167
       ],
       [
        11.5631,
        48.2197
       ],
       [
        11.5623,
        48.22
       ],
       [
        11.5645,
        48.2218
       ],
       [
        11.564,
        48.2227
       ],
       [
        11.5646,
        48.2229
       ],
       [
        11.5632,
        48.2248
       ],
       [
        11.565,
        48.2272
       ],
       [
        11.5474,
        48.227
       ],
       [
        11.545,
        48.2279
       ],
       [
        11.5443,
        48.2293
       ],
       [
        11.5417,
        48.2288
       ],
       [
        11.5339,
        48.2305
       ],
       [
        11.534,
        48.2314
       ],
       [
        11.5311,
        48.2313
       ],
       [
        11.5298,
        48.2324
       ],
       [
        11.5259,
        48.2403
       ]
      ]
     ]
    ]
   }
  },
  {
   "type": "Feature",
   "properties": {
    "sb_codigo": "25",
    "sb_nombre": "Laim",
    "area_km2": 5.29
   },
   "geometry": {
    "type": "MultiPolygon",
    "coordinates": [
     [
      [
       [
        11.4958,
        48.1454
       ],
       [
        11.4892,
        48.1474
       ],
       [
        11.4885,
        48.1447
       ],
       [
        11.4896,
        48.1442
       ],
       [
        11.4888,
        48.142
       ],
       [
        11.4846,
        48.136
       ],
       [
        11.4828,
        48.1311
       ],
       [
        11.483,
        48.1301
       ],
       [
        11.4926,
        48.1294
       ],
       [
        11.4966,
        48.1271
       ],
       [
        11.498,
        48.1254
       ],
       [
        11.5086,
        48.1252
       ],
       [
        11.5098,
        48.1265
       ],
       [
        11.5169,
        48.1298
       ],
       [
        11.5261,
        48.1364
       ],
       [
        11.5272,
        48.1405
       ],
       [
        11.5311,
        48.1416
       ],
       [
        11.5342,
        48.1414
       ],
       [
        11.5344,
        48.1428
       ],
       [
        11.5114,
        48.1434
       ],
       [
        11.4958,
        48.1454
       ]
      ]
     ]
    ]
   }
  }
 ]
}
